{"type": "FeatureCollection", "features": [ {"type": "Feature", "properties": {"norad_id": 66889, "name": "STARLINK-35852", "group": "last-30-days", "lat": 35.054878381310715, "lon": 61.084903560497516, "alt_km": 342.11171914634633, "timestamp": "2025-12-21T14:40:46.635378+00:00", "meta": {"OBJECT_NAME": "STARLINK-35852", "OBJECT_ID": "2025-283M", "EPOCH": "2025-12-21T06:00:00.999648", "MEAN_MOTION": 15.74195118, "ECCENTRICITY": 0.00010853, "INCLINATION": 53.1575, "RA_OF_ASC_NODE": 31.1387, "ARG_OF_PERICENTER": 97.0556, "MEAN_ANOMALY": 58.2835, "EPHEMERIS_TYPE": 0, "CLASSIFICATION_TYPE": "U", "NORAD_CAT_ID": 66889, "ELEMENT_SET_NO": 999, "REV_AT_EPOCH": 379, "BSTAR": -0.00030216037, "MEAN_MOTION_DOT": -0.00044659, "MEAN_MOTION_DDOT": 0}, "tle": {"line1": "1 66889U 25283M   25355.25001157 -.00044659  00000+0 -30216-3 0  9992", "line2": "2 66889  53.1575  31.1387 0001085  97.0556  58.2835 15.74195118  3796"}}, "geometry": {"type": "Point", "coordinates": [61.084903560497516, 35.054878381310715]}}, {"type": "Feature", "properties": {"norad_id": 66890, "name": "STARLINK-35885", "group": "last-30-days", "lat": 36.35111903403546, "lon": 62.8312553836899, "alt_km": 341.8431273166916, "timestamp": "2025-12-21T14:40:46.635388+00:00", "meta": {"OBJECT_NAME": "STARLINK-35885", "OBJECT_ID": "2025-283N", "EPOCH": "2025-12-21T06:00:00.999648", "MEAN_MOTION": 15.74202179, "ECCENTRICITY": 0.00011058, "INCLINATION": 53.1576, "RA_OF_ASC_NODE": 31.1351, "ARG_OF_PERICENTER": 93.2143, "MEAN_ANOMALY": 64.0412, "EPHEMERIS_TYPE": 0, "CLASSIFICATION_TYPE": "U", "NORAD_CAT_ID": 66890, "ELEMENT_SET_NO": 999, "REV_AT_EPOCH": 379, "BSTAR": -0.00037960203, "MEAN_MOTION_DOT": -0.00055887, "MEAN_MOTION_DDOT": 0}, "tle": {"line1": "1 66890U 25283N   25355.25001157 -.00055887  00000+0 -37960-3 0  9992", "line2": "2 66890  53.1576  31.1351 0001105  93.2143  64.0412 15.74202179  3795"}}, "geometry": {"type": "Point", "coordinates": [62.8312553836899, 36.35111903403546]}}, {"type": "Feature", "properties": {"norad_id": 66891, "name": "STARLINK-35855", "group": "last-30-days", "lat": 37.609864320918675, "lon": 64.61961933690874, "alt_km": 341.5821352636867, "timestamp": "2025-12-21T14:40:46.635400+00:00", "meta": {"OBJECT_NAME": "STARLINK-35855", "OBJECT_ID": "2025-283P", "EPOCH": "2025-12-21T06:00:00.999648", "MEAN_MOTION": 15.74191981, "ECCENTRICITY": 0.00012852, "INCLINATION": 53.1574, "RA_OF_ASC_NODE": 31.1307, "ARG_OF_PERICENTER": 95.9681, "MEAN_ANOMALY": 63.2029, "EPHEMERIS_TYPE": 0, "CLASSIFICATION_TYPE": "U", "NORAD_CAT_ID": 66891, "ELEMENT_SET_NO": 999, "REV_AT_EPOCH": 379, "BSTAR": -0.00032887984, "MEAN_MOTION_DOT": -0.00048525, "MEAN_MOTION_DDOT": 0}, "tle": {"line1": "1 66891U 25283P   25355.25001157 -.00048525  00000+0 -32888-3 0  9998", "line2": "2 66891  53.1574  31.1307 0001285  95.9681  63.2029 15.74191981  3793"}}, "geometry": {"type": "Point", "coordinates": [64.61961933690874, 37.609864320918675]}}, {"type": "Feature", "properties": {"norad_id": 66892, "name": "STARLINK-35883", "group": "last-30-days", "lat": 38.854335562233395, "lon": 66.49029611383071, "alt_km": 341.32155298383714, "timestamp": "2025-12-21T14:40:46.635410+00:00", "meta": {"OBJECT_NAME": "STARLINK-35883", "OBJECT_ID": "2025-283Q", "EPOCH": "2025-12-21T06:00:00.999648", "MEAN_MOTION": 15.74198303, "ECCENTRICITY": 0.0001105, "INCLINATION": 53.1575, "RA_OF_ASC_NODE": 31.1267, "ARG_OF_PERICENTER": 79.6801, "MEAN_ANOMALY": 81.4072, "EPHEMERIS_TYPE": 0, "CLASSIFICATION_TYPE": "U", "NORAD_CAT_ID": 66892, "ELEMENT_SET_NO": 999, "REV_AT_EPOCH": 373, "BSTAR": -0.00038472879, "MEAN_MOTION_DOT": -0.00056619, "MEAN_MOTION_DDOT": 0}, "tle": {"line1": "1 66892U 25283Q   25355.25001157 -.00056619  00000+0 -38473-3 0  9998", "line2": "2 66892  53.1575  31.1267 0001105  79.6801  81.4072 15.74198303  3733"}}, "geometry": {"type": "Point", "coordinates": [66.49029611383071, 38.854335562233395]}}, {"type": "Feature", "properties": {"norad_id": 66893, "name": "STARLINK-36033", "group": "last-30-days", "lat": 40.067200978187536, "lon": 68.42591550754415, "alt_km": 341.1248248427646, "timestamp": "2025-12-21T14:40:46.635425+00:00", "meta": {"OBJECT_NAME": "STARLINK-36033", "OBJECT_ID": "2025-283R", "EPOCH": "2025-12-21T06:00:00.999648", "MEAN_MOTION": 15.7420403, "ECCENTRICITY": 0.00012088, "INCLINATION": 53.1576, "RA_OF_ASC_NODE": 31.1227, "ARG_OF_PERICENTER": 92.0143, "MEAN_ANOMALY": 70.9897, "EPHEMERIS_TYPE": 0, "CLASSIFICATION_TYPE": "U", "NORAD_CAT_ID": 66893, "ELEMENT_SET_NO": 999, "REV_AT_EPOCH": 379, "BSTAR": -0.00034373821, "MEAN_MOTION_DOT": -0.00050702, "MEAN_MOTION_DDOT": 0}, "tle": {"line1": "1 66893U 25283R   25355.25001157 -.00050702  00000+0 -34374-3 0  9992", "line2": "2 66893  53.1576  31.1227 0001208  92.0143  70.9897 15.74204030  3792"}}, "geometry": {"type": "Point", "coordinates": [68.42591550754415, 40.067200978187536]}}, {"type": "Feature", "properties": {"norad_id": 66894, "name": "STARLINK-35718", "group": "last-30-days", "lat": 41.24083655662067, "lon": 70.42166783520378, "alt_km": 340.9160580998978, "timestamp": "2025-12-21T14:40:46.635439+00:00", "meta": {"OBJECT_NAME": "STARLINK-35718", "OBJECT_ID": "2025-283S", "EPOCH": "2025-12-21T06:00:00.999648", "MEAN_MOTION": 15.74201462, "ECCENTRICITY": 0.00011406, "INCLINATION": 53.1575, "RA_OF_ASC_NODE": 31.1192, "ARG_OF_PERICENTER": 84.3104, "MEAN_ANOMALY": 80.6106, "EPHEMERIS_TYPE": 0, "CLASSIFICATION_TYPE": "U", "NORAD_CAT_ID": 66894, "ELEMENT_SET_NO": 999, "REV_AT_EPOCH": 379, "BSTAR": -0.00035736531, "MEAN_MOTION_DOT": -0.00052668, "MEAN_MOTION_DDOT": 0}, "tle": {"line1": "1 66894U 25283S   25355.25001157 -.00052668  00000+0 -35737-3 0  9990", "line2": "2 66894  53.1575  31.1192 0001140  84.3104  80.6106 15.74201462  3796"}}, "geometry": {"type": "Point", "coordinates": [70.42166783520378, 41.24083655662067]}}, {"type": "Feature", "properties": {"norad_id": 66895, "name": "STARLINK-35971", "group": "last-30-days", "lat": 43.479484496465645, "lon": 74.63212636703449, "alt_km": 340.6691681475322, "timestamp": "2025-12-21T14:40:46.635450+00:00", "meta": {"OBJECT_NAME": "STARLINK-35971", "OBJECT_ID": "2025-283T", "EPOCH": "2025-12-21T06:00:00.999648", "MEAN_MOTION": 15.74204633, "ECCENTRICITY": 0.00011676, "INCLINATION": 53.1578, "RA_OF_ASC_NODE": 31.1097, "ARG_OF_PERICENTER": 99.4208, "MEAN_ANOMALY": 69.3378, "EPHEMERIS_TYPE": 0, "CLASSIFICATION_TYPE": "U", "NORAD_CAT_ID": 66895, "ELEMENT_SET_NO": 999, "REV_AT_EPOCH": 379, "BSTAR": -0.00046112029, "MEAN_MOTION_DOT": -0.00067667, "MEAN_MOTION_DDOT": 0}, "tle": {"line1": "1 66895U 25283T   25355.25001157 -.00067667  00000+0 -46112-3 0  9995", "line2": "2 66895  53.1578  31.1097 0001167  99.4208  69.3378 15.74204633  3793"}}, "geometry": {"type": "Point", "coordinates": [74.63212636703449, 43.479484496465645]}}, {"type": "Feature", "properties": {"norad_id": 66896, "name": "STARLINK-35791", "group": "last-30-days", "lat": 42.379092672239736, "lon": 72.48864340916705, "alt_km": 340.7978731874855, "timestamp": "2025-12-21T14:40:46.635460+00:00", "meta": {"OBJECT_NAME": "STARLINK-35791", "OBJECT_ID": "2025-283U", "EPOCH": "2025-12-21T06:00:00.999648", "MEAN_MOTION": 15.74205066, "ECCENTRICITY": 0.00011327, "INCLINATION": 53.1574, "RA_OF_ASC_NODE": 31.1141, "ARG_OF_PERICENTER": 93.4444, "MEAN_ANOMALY": 73.3912, "EPHEMERIS_TYPE": 0, "CLASSIFICATION_TYPE": "U", "NORAD_CAT_ID": 66896, "ELEMENT_SET_NO": 999, "REV_AT_EPOCH": 379, "BSTAR": -0.00039002803, "MEAN_MOTION_DOT": -0.00057402, "MEAN_MOTION_DDOT": 0}, "tle": {"line1": "1 66896U 25283U   25355.25001157 -.00057402  00000+0 -39003-3 0  9993", "line2": "2 66896  53.1574  31.1141 0001132  93.4444  73.3912 15.74205066  3798"}}, "geometry": {"type": "Point", "coordinates": [72.48864340916705, 42.379092672239736]}}, {"type": "Feature", "properties": {"norad_id": 66897, "name": "STARLINK-36079", "group": "last-30-days", "lat": 44.535334641058384, "lon": 76.85023549934422, "alt_km": 340.5023430845258, "timestamp": "2025-12-21T14:40:46.635475+00:00", "meta": {"OBJECT_NAME": "STARLINK-36079", "OBJECT_ID": "2025-283V", "EPOCH": "2025-12-21T06:00:00.999648", "MEAN_MOTION": 15.74192105, "ECCENTRICITY": 0.00010328, "INCLINATION": 53.1574, "RA_OF_ASC_NODE": 31.1063, "ARG_OF_PERICENTER": 91.4899, "MEAN_ANOMALY": 79.1853, "EPHEMERIS_TYPE": 0, "CLASSIFICATION_TYPE": "U", "NORAD_CAT_ID": 66897, "ELEMENT_SET_NO": 999, "REV_AT_EPOCH": 379, "BSTAR": -0.00032662592, "MEAN_MOTION_DOT": -0.00048197, "MEAN_MOTION_DDOT": 0}, "tle": {"line1": "1 66897U 25283V   25355.25001157 -.00048197  00000+0 -32663-3 0  9990", "line2": "2 66897  53.1574  31.1063 0001032  91.4899  79.1853 15.74192105  3790"}}, "geometry": {"type": "Point", "coordinates": [76.85023549934422, 44.535334641058384]}}, {"type": "Feature", "properties": {"norad_id": 66898, "name": "STARLINK-36065", "group": "last-30-days", "lat": 45.55212851220089, "lon": 79.15844280003311, "alt_km": 340.2972362719147, "timestamp": "2025-12-21T14:40:46.635485+00:00", "meta": {"OBJECT_NAME": "STARLINK-36065", "OBJECT_ID": "2025-283W", "EPOCH": "2025-12-21T06:00:00.999648", "MEAN_MOTION": 15.74204532, "ECCENTRICITY": 0.00011303, "INCLINATION": 53.1579, "RA_OF_ASC_NODE": 31.1017, "ARG_OF_PERICENTER": 94.4697, "MEAN_ANOMALY": 78.1188, "EPHEMERIS_TYPE": 0, "CLASSIFICATION_TYPE": "U", "NORAD_CAT_ID": 66898, "ELEMENT_SET_NO": 999, "REV_AT_EPOCH": 379, "BSTAR": -0.00042764651, "MEAN_MOTION_DOT": -0.00062836, "MEAN_MOTION_DDOT": 0}, "tle": {"line1": "1 66898U 25283W   25355.25001157 -.00062836  00000+0 -42765-3 0  9991", "line2": "2 66898  53.1579  31.1017 0001130  94.4697  78.1188 15.74204532  3791"}}, "geometry": {"type": "Point", "coordinates": [79.15844280003311, 45.55212851220089]}}]}